IRIDIUM 166             
1 43570U 18061B   23328.42012098  .00000483  00000+0  16541-3 0  9993
2 43570  86.3958  87.8263 0002259  98.9816 261.1636 14.34218268279274
IRIDIUM 158             
1 43571U 18061C   23328.38840014  .00000596  00000+0  20578-3 0  9996
2 43571  86.3957  87.8484 0002330  87.8960 272.2503 14.34218486279230
IRIDIUM 165             
1 43572U 18061D   23328.41379168  .00000231  00000+0  75294-4 0  9990
2 43572  86.3960  87.8669 0002342  88.8831 271.2633 14.34215499279268
IRIDIUM 155             
1 43573U 18061E   23328.44549101  .00000545  00000+0  18745-3 0  9995
2 43573  86.3956  87.7682 0001977 100.9641 259.1778 14.34223294279230
IRIDIUM 154             
1 43574U 18061F   23328.42646104  .00000545  00000+0  18755-3 0  9996
2 43574  86.3960  87.8642 0001863  91.0679 269.0730 14.34219919279280
IRIDIUM 163             
1 43575U 18061G   23328.47719888  .00000570  00000+0  19641-3 0  9995
2 43575  86.3958  87.7877 0001973  90.5164 269.6257 14.34221195279269
IRIDIUM 156             
1 43576U 18061H   23328.38207623  .00000547  00000+0  18808-3 0  9993
2 43576  86.3956  87.8331 0002279  96.6765 263.4690 14.34221824279248
IRIDIUM 164             
1 43577U 18061J   23328.43280457  .00000502  00000+0  17230-3 0  9995
2 43577  86.3959  87.8380 0002219  91.6564 268.4886 14.34219055279292
